{
  "norad_id": 63989,
  "name": "SCS-01 H",
  "history": [
    {
      "epoch": "2026-03-28T22:15:09.368928",
      "apogee_km": 478.8349034619159,
      "perigee_km": 465.8162843484588,
      "latitude_deg": 74.57782999693627,
      "longitude_deg": -52.08959008008242,
      "semi_major_axis_km": 6850.4625939051875,
      "eccentricity": 0.0009502,
      "inclination_deg": 97.3728,
      "raan_deg": 164.6497,
      "arg_perigee_deg": 196.8386,
      "mean_anomaly_deg": 163.2541,
      "mean_motion_rev_day": 15.31168243
    },
    {
      "epoch": "2026-03-29T04:31:34.759200",
      "apogee_km": 478.77076100948216,
      "perigee_km": 465.73994467590455,
      "latitude_deg": -2.507132056936275,
      "longitude_deg": -26.99471200001426,
      "semi_major_axis_km": 6850.392352842693,
      "eccentricity": 0.0009511,
      "inclination_deg": 97.3728,
      "raan_deg": 164.9096,
      "arg_perigee_deg": 196.0049,
      "mean_anomaly_deg": 164.0893,
      "mean_motion_rev_day": 15.31191793
    }
  ]
}